{
  "type": "FeatureCollection",
  "features": [
    {
      "type": "Feature",
      "properties": {
        "norad_id": 34446,
        "name": "COSMOS 2251 DEB",
        "group": "cosmos-2251-debris",
        "lat": 37.35196517691344,
        "lon": 48.88144969112457,
        "alt_km": 748.8374235522842,
        "timestamp": "2025-12-23T22:42:33.380141+00:00",
        "meta_object_name": "COSMOS 2251 DEB",
        "meta_object_id": "1993-036SP",
        "meta_epoch": "2025-12-23T04:18:19.444608",
        "meta_mean_motion": 14.49363759,
        "meta_eccentricity": 0.00506388,
        "meta_inclination": 74.0415,
        "meta_ra_of_asc_node": 37.704,
        "meta_arg_of_pericenter": 173.2295,
        "meta_mean_anomaly": 186.9561,
        "meta_ephemeris_type": 0,
        "meta_classification_type": "U",
        "meta_norad_cat_id": 34446,
        "meta_element_set_no": 999,
        "meta_rev_at_epoch": 88845,
        "meta_bstar": 0.00011175749,
        "meta_mean_motion_dot": 4.06e-06,
        "meta_mean_motion_ddot": 0,
        "tle_line1": "1 34446U 93036SP  25357.17939172  .00000406  00000+0  11176-3 0  9991",
        "tle_line2": "2 34446  74.0415  37.7040 0050638 173.2295 186.9561 14.49363759888456"
      },
      "geometry": {
        "type": "Point",
        "coordinates": [
          48.88144969112457,
          37.35196517691344
        ]
      }
    },
    {
      "type": "Feature",
      "properties": {
        "norad_id": 34449,
        "name": "COSMOS 2251 DEB",
        "group": "cosmos-2251-debris",
        "lat": -50.88861755644898,
        "lon": -111.43062755225786,
        "alt_km": 601.1803557899866,
        "timestamp": "2025-12-23T22:42:33.380151+00:00",
        "meta_object_name": "COSMOS 2251 DEB",
        "meta_object_id": "1993-036SS",
        "meta_epoch": "2025-12-23T04:16:41.219904",
        "meta_mean_motion": 14.95406741,
        "meta_eccentricity": 0.00227012,
        "meta_inclination": 74.0323,
        "meta_ra_of_asc_node": 49.4976,
        "meta_arg_of_pericenter": 85.859,
        "meta_mean_anomaly": 335.1297,
        "meta_ephemeris_type": 0,
        "meta_classification_type": "U",
        "meta_norad_cat_id": 34449,
        "meta_element_set_no": 999,
        "meta_rev_at_epoch": 88849,
        "meta_bstar": 0.0025913641,
        "meta_mean_motion_dot": 0.00028864,
        "meta_mean_motion_ddot": 0,
        "tle_line1": "1 34449U 93036SS  25357.17825486  .00028864  00000+0  25914-2 0  9998",
        "tle_line2": "2 34449  74.0323  49.4976 0022701  85.8590 335.1297 14.95406741888499"
      },
      "geometry": {
        "type": "Point",
        "coordinates": [
          -111.43062755225786,
          -50.88861755644898
        ]
      }
    },
    {
      "type": "Feature",
      "properties": {
        "norad_id": 34451,
        "name": "COSMOS 2251 DEB",
        "group": "cosmos-2251-debris",
        "lat": -50.418787686301975,
        "lon": -94.50127201060664,
        "alt_km": 600.2001027803753,
        "timestamp": "2025-12-23T22:42:33.380162+00:00",
        "meta_object_name": "COSMOS 2251 DEB",
        "meta_object_id": "1993-036SU",
        "meta_epoch": "2025-12-22T05:33:05.101056",
        "meta_mean_motion": 14.96073953,
        "meta_eccentricity": 0.00238449,
        "meta_inclination": 74.0466,
        "meta_ra_of_asc_node": 68.7153,
        "meta_arg_of_pericenter": 82.7849,
        "meta_mean_anomaly": 277.6045,
        "meta_ephemeris_type": 0,
        "meta_classification_type": "U",
        "meta_norad_cat_id": 34451,
        "meta_element_set_no": 999,
        "meta_rev_at_epoch": 88777,
        "meta_bstar": 0.0029135722,
        "meta_mean_motion_dot": 0.00033055,
        "meta_mean_motion_ddot": 0,
        "tle_line1": "1 34451U 93036SU  25356.23130904  .00033055  00000+0  29136-2 0  9999",
        "tle_line2": "2 34451  74.0466  68.7153 0023844  82.7849 277.6045 14.96073953887770"
      },
      "geometry": {
        "type": "Point",
        "coordinates": [
          -94.50127201060664,
          -50.418787686301975
        ]
      }
    },
    {
      "type": "Feature",
      "properties": {
        "norad_id": 34452,
        "name": "COSMOS 2251 DEB",
        "group": "cosmos-2251-debris",
        "lat": -61.17910297973153,
        "lon": 10.9798430598392,
        "alt_km": 493.4084454666363,
        "timestamp": "2025-12-23T22:42:33.380172+00:00",
        "meta_object_name": "COSMOS 2251 DEB",
        "meta_object_id": "1993-036SV",
        "meta_epoch": "2025-12-23T04:56:13.319808",
        "meta_mean_motion": 15.11952627,
        "meta_eccentricity": 0.00645322,
        "meta_inclination": 74.032,
        "meta_ra_of_asc_node": 161.1537,
        "meta_arg_of_pericenter": 235.158,
        "meta_mean_anomaly": 301.4093,
        "meta_ephemeris_type": 0,
        "meta_classification_type": "U",
        "meta_norad_cat_id": 34452,
        "meta_element_set_no": 999,
        "meta_rev_at_epoch": 90820,
        "meta_bstar": 0.00092340094,
        "meta_mean_motion_dot": 0.0001665,
        "meta_mean_motion_ddot": 0,
        "tle_line1": "1 34452U 93036SV  25357.20570972  .00016650  00000+0  92340-3 0  9991",
        "tle_line2": "2 34452  74.0320 161.1537 0064532 235.1580 301.4093 15.11952627908202"
      },
      "geometry": {
        "type": "Point",
        "coordinates": [
          10.9798430598392,
          -61.17910297973153
        ]
      }
    },
    {
      "type": "Feature",
      "properties": {
        "norad_id": 34454,
        "name": "COSMOS 2251 DEB",
        "group": "cosmos-2251-debris",
        "lat": -35.075137980049256,
        "lon": 88.57738820899722,
        "alt_km": 772.9377979123228,
        "timestamp": "2025-12-23T22:42:33.380182+00:00",
        "meta_object_name": "COSMOS 2251 DEB",
        "meta_object_id": "1993-036SX",
        "meta_epoch": "2025-12-23T03:20:48.956064",
        "meta_mean_motion": 14.38824144,
        "meta_eccentricity": 0.00359204,
        "meta_inclination": 74.0586,
        "meta_ra_of_asc_node": 258.485,
        "meta_arg_of_pericenter": 318.9511,
        "meta_mean_anomaly": 40.8941,
        "meta_ephemeris_type": 0,
        "meta_classification_type": "U",
        "meta_norad_cat_id": 34454,
        "meta_element_set_no": 999,
        "meta_rev_at_epoch": 88217,
        "meta_bstar": 0.0002135841,
        "meta_mean_motion_dot": 6.35e-06,
        "meta_mean_motion_ddot": 0,
        "tle_line1": "1 34454U 93036SX  25357.13945551  .00000635  00000+0  21358-3 0  9991",
        "tle_line2": "2 34454  74.0586 258.4850 0035920 318.9511  40.8941 14.38824144882172"
      },
      "geometry": {
        "type": "Point",
        "coordinates": [
          88.57738820899722,
          -35.075137980049256
        ]
      }
    },
    {
      "type": "Feature",
      "properties": {
        "norad_id": 34459,
        "name": "COSMOS 2251 DEB",
        "group": "cosmos-2251-debris",
        "lat": 63.44048233482305,
        "lon": 19.85975895066372,
        "alt_km": 1022.7657922325379,
        "timestamp": "2025-12-23T22:42:33.380193+00:00",
        "meta_object_name": "COSMOS 2251 DEB",
        "meta_object_id": "1993-036TC",
        "meta_epoch": "2025-12-22T01:35:59.550144",
        "meta_mean_motion": 14.00513623,
        "meta_eccentricity": 0.01921145,
        "meta_inclination": 74.0786,
        "meta_ra_of_asc_node": 237.9285,
        "meta_arg_of_pericenter": 305.6081,
        "meta_mean_anomaly": 52.7285,
        "meta_ephemeris_type": 0,
        "meta_classification_type": "U",
        "meta_norad_cat_id": 34459,
        "meta_element_set_no": 999,
        "meta_rev_at_epoch": 85842,
        "meta_bstar": 0.00037140359,
        "meta_mean_motion_dot": 6.22e-06,
        "meta_mean_motion_ddot": 0,
        "tle_line1": "1 34459U 93036TC  25356.06666146  .00000622  00000+0  37140-3 0  9999",
        "tle_line2": "2 34459  74.0786 237.9285 0192114 305.6081  52.7285 14.00513623858427"
      },
      "geometry": {
        "type": "Point",
        "coordinates": [
          19.85975895066372,
          63.44048233482305
        ]
      }
    },
    {
      "type": "Feature",
      "properties": {
        "norad_id": 34464,
        "name": "COSMOS 2251 DEB",
        "group": "cosmos-2251-debris",
        "lat": -16.535823049559994,
        "lon": 49.54101092218387,
        "alt_km": 487.2442105238033,
        "timestamp": "2025-12-23T22:42:33.380204+00:00",
        "meta_object_name": "COSMOS 2251 DEB",
        "meta_object_id": "1993-036TH",
        "meta_epoch": "2025-12-23T03:56:05.254080",
        "meta_mean_motion": 15.28477233,
        "meta_eccentricity": 0.00143439,
        "meta_inclination": 73.9891,
        "meta_ra_of_asc_node": 56.0969,
        "meta_arg_of_pericenter": 238.9119,
        "meta_mean_anomaly": 121.0675,
        "meta_ephemeris_type": 0,
        "meta_classification_type": "U",
        "meta_norad_cat_id": 34464,
        "meta_element_set_no": 999,
        "meta_rev_at_epoch": 89999,
        "meta_bstar": 0.002873803,
        "meta_mean_motion_dot": 0.00080744,
        "meta_mean_motion_ddot": 0,
        "tle_line1": "1 34464U 93036TH  25357.16394970  .00080744  00000+0  28738-2 0  9995",
        "tle_line2": "2 34464  73.9891  56.0969 0014343 238.9119 121.0675 15.28477233899991"
      },
      "geometry": {
        "type": "Point",
        "coordinates": [
          49.54101092218387,
          -16.535823049559994
        ]
      }
    }
  ]
}